{"type":"Feature","properties":{"name":"Grüner Baum","amenity":"restaurant","disused":"yes","building":"yes","source:geometry":"Bing 2012","osmType":"Way","wayID":"24277596"},"geometry":{"type":"LineString","coordinates":[[12.155905200000001,48.2672607],[12.155648900000001,48.2672298],[12.155616400000001,48.267349200000005],[12.155872700000002,48.267380100000004],[12.155905200000001,48.2672607]]}}
{"type":"Feature","properties":{"name":"Sportgaststätte SC Inhauser Moos","amenity":"restaurant","building":"yes","osmType":"Way","wayID":"24537720"},"geometry":{"type":"LineString","coordinates":[[11.5649735,48.2926506],[11.5648604,48.292562200000006],[11.5649878,48.2924901],[11.565008200000001,48.292506],[11.5650692,48.292471500000005],[11.565017200000002,48.29243090000001],[11.565210500000001,48.292321400000006],[11.5653552,48.292434500000006],[11.5649735,48.2926506]]}}
{"type":"Feature","properties":{"amenity":"restaurant","brewery":"Hofbräuhaus Traunstein","building":"yes","name":"Jaudenstadl","opening_hours":"Mo-Su 10:00+","website":"http://www.jauden.de/jaudenstadl","osmType":"Way","wayID":"25043405"},"geometry":{"type":"LineString","coordinates":[[11.5641616,47.6636121],[11.5641841,47.663458500000004],[11.564452900000001,47.6634764],[11.5644304,47.663630000000005],[11.5641616,47.6636121]]}}
{"type":"Feature","properties":{"name":"Draxl-Stüberl","amenity":"restaurant","building":"yes","osmType":"Way","wayID":"25047668"},"geometry":{"type":"LineString","coordinates":[[11.564271000000002,47.661884500000006],[11.5642747,47.6617602],[11.5645193,47.661763400000005],[11.5645156,47.6618878],[11.564271000000002,47.661884500000006]]}}
{"type":"Feature","properties":{"amenity":"restaurant","beer_garden":"yes","diet:vegan":"yes","diet:vegetarian":"yes","name":"Biergarten am Künettegraben","outdoor_seating":"yes","source":"HiRes aerial imagery","toilets:wheelchair":"no","website":"http://www.biergarten-am-kuenettegraben.de","wheelchair":"yes","osmType":"Way","wayID":"25639799"},"geometry":{"type":"LineString","coordinates":[[11.4189655,48.7601482],[11.4188177,48.7600575],[11.418595700000001,48.760096100000005],[11.4183959,48.760158600000004],[11.418423500000001,48.760229700000004],[11.4184105,48.760355700000005],[11.418618400000002,48.7603729],[11.4186835,48.760359900000005],[11.4188214,48.760275],[11.4188614,48.7602277],[11.4189655,48.7601482]]}}
